[{"OBJECT_NAME":"STARLINK-5373","OBJECT_ID":"2023-015AT","EPOCH":"2026-03-09T22:00:01.999584","MEAN_MOTION":15.1336627,"ECCENTRICITY":0.0001701,"INCLINATION":42.9999,"RA_OF_ASC_NODE":337.3893,"ARG_OF_PERICENTER":260.8255,"MEAN_ANOMALY":48.0561,"EPHEMERIS_TYPE":0,"CLASSIFICATION_TYPE":"U","NORAD_CAT_ID":55490,"ELEMENT_SET_NO":999,"REV_AT_EPOCH":572,"BSTAR":0.06585946,"MEAN_MOTION_DOT":0.01296118,"MEAN_MOTION_DDOT":0},{"OBJECT_NAME":"OBJECT B","OBJECT_ID":"2024-024B","EPOCH":"2026-03-09T23:03:07.239744","MEAN_MOTION":15.20764865,"ECCENTRICITY":0.00185665,"INCLINATION":97.3159,"RA_OF_ASC_NODE":138.1992,"ARG_OF_PERICENTER":118.5867,"MEAN_ANOMALY":241.724,"EPHEMERIS_TYPE":0,"CLASSIFICATION_TYPE":"U","NORAD_CAT_ID":58918,"ELEMENT_SET_NO":999,"REV_AT_EPOCH":11626,"BSTAR":0.00044590474,"MEAN_MOTION_DOT":9.803e-5,"MEAN_MOTION_DDOT":0}]
